NOAA 9 [-]              
1 15427U 84123A   22175.45604111  .00000056  00000+0  51498-4 0  9997
2 15427  99.0452 147.9503 0015425 142.2109 331.5352 14.16205209937602
NOAA 10 [-]             
1 16969U 86073A   22175.53690796  .00000051  00000+0  37948-4 0  9997
2 16969  98.5673 161.5610 0011094 294.8798 172.3958 14.28203720862104
NOAA 11 [-]             
1 19531U 88089A   22175.55350133  .00000020  00000+0  31194-4 0  9997
2 19531  98.4237 164.2458 0011632 152.6856 207.4932 14.15312197741823
NOAA 12 [-]             
1 21263U 91032A   22175.50895296  .00000036  00000+0  33090-4 0  9997
2 21263  98.5132 175.1337 0012884 323.2156  36.8139 14.25996128617737
NOAA 13 [-]             
1 22739U 93050A   22175.52835084  .00000061  00000+0  54813-4 0  9993
2 22739  98.5044 154.9761 0008913 330.2406  29.8259 14.12845909488050
NOAA 14 [-]             
1 23455U 94089A   22175.55921212  .00000012  00000+0  27961-4 0  9994
2 23455  98.4470 201.8775 0008479 308.8887  51.1530 14.14199206417715
NOAA 15 [B]             
1 25338U 98030A   22175.78657785  .00000149  00000+0  80591-4 0  9991
2 25338  98.6430 205.2262 0009144 276.9518  83.0621 14.26142203254318
NOAA 16 [-]             
1 26536U 00055A   22175.54750876  .00000024  00000+0  35476-4 0  9995
2 26536  98.6359 234.2046 0011297 140.9735 219.2255 14.13331432418356
NOAA 17 [-]             
1 27453U 02032A   22175.52382198  .00000038  00000+0  34964-4 0  9993
2 27453  98.6720 120.7014 0010693 249.9942 110.0086 14.25124602 39867
NOAA 18 [B]             
1 28654U 05018A   22175.78432052  .00000123  00000+0  90349-4 0  9991
2 28654  98.9488 246.2145 0013319 313.7182  46.2886 14.12745544881108
NOAA 19 [+]             
1 33591U 09005A   22175.78644355  .00000127  00000+0  93551-4 0  9990
2 33591  99.1469 210.0773 0014255 163.5184 196.6453 14.12580192689488
SUOMI NPP [+]           
1 37849U 11061A   22175.81560007  .00000037  00000+0  38253-4 0  9998
2 37849  98.7329 114.2655 0001072  84.9392 353.4827 14.19530214552239
NOAA 20 [+]             
1 43013U 17073A   22175.83579727  .00000011  00000+0  26054-4 0  9996
2 43013  98.7168 114.2745 0001531  74.8561 285.2785 14.19558672238274
CELESTIS-02             
1 25160U 98007D   22175.56701596 -.00000026  00000+0  46236-4 0  9997
2 25160 107.9821 281.0705 0060901  98.3539 274.3885 14.21630036263879
CELESTIS-03             
1 26034U 99070C   22175.55623346  .00011556  00000+0  55314-3 0  9999
2 26034  98.3111 182.2235 0012333 103.7282 256.5323 15.19087974222157
O3B FM5                 
1 39188U 13031A   22175.26804311 -.00000023  00000+0  00000+0 0  9993
2 39188   0.0470  27.5696 0002332  97.6476 234.8033  4.99968332164306
O3B FM4                 
1 39189U 13031B   22175.12031982 -.00000023  00000+0  00000+0 0  9995
2 39189   0.0585 359.7195 0002074 135.2542 225.0419  4.99927657164310
O3B FM2                 
1 39190U 13031C   22171.76886834 -.00000024  00000+0  00000+0 0  9998
2 39190   0.0628 357.1967 0002870 314.8550  47.9216  5.00116083164195
O3B PFM                 
1 39191U 13031D   22175.24735263 -.00000023  00000+0  00000+0 0  9994
2 39191   0.0478  16.7888 0002659  76.9775 266.2628  5.00115716163935
O3B FM3                 
1 40079U 14038A   22175.50196609 -.00000023  00000+0  00000+0 0  9993
2 40079   0.0547   6.4498 0005055  91.1770 262.4294  5.00115417140322
O3B FM7                 
1 40080U 14038B   22175.44803921 -.00000023  00000+0  00000+0 0  9990
2 40080   0.0590   5.6558 0000778  98.4733 255.8783  5.00115441145147
O3B FM6                 
1 40081U 14038C   22175.27452252 -.00000023  00000+0  00000+0 0  9999
2 40081   0.0544   5.3831 0002676  89.1750 265.4712  5.00115442145097
O3B FM8                 
1 40082U 14038D   22175.12859988 -.00000023  00000+0  00000+0 0  9991
2 40082   0.0553   2.2144 0002730  88.7544 269.0612  5.00115632145201
O3B FM10                
1 40348U 14083A   22175.35446067 -.00000023  00000+0  00000+0 0  9991
2 40348   0.0467  10.6550 0002640  82.9841 266.3899  5.00115110137164
O3B FM11                
1 40349U 14083B   22175.36795738 -.00000023  00000+0  00000+0 0  9995
2 40349   0.0503  14.2124 0002097  90.9434 254.8660  5.00115377137181
O3B FM12                
1 40350U 14083C   22175.19525319 -.00000023  00000+0  00000+0 0  9994
2 40350   0.0503  13.1348 0002651  84.0964 262.7977  5.00115284137183
O3B FM9                 
1 40351U 14083D   22175.02233433 -.00000023  00000+0  00000+0 0  9990
2 40351   0.0510  15.3259 0002590  78.4674 266.2350  5.00115529137326
DIAMOND RED             
1 42783U 17036U   22175.39523711  .00007208  00000+0  26951-3 0  9991
2 42783  97.1991 215.9533 0008742 311.4455  48.6033 15.27591044278003
DIAMOND GREEN           
1 42785U 17036W   22175.39367136  .00005395  00000+0  20253-3 0  9994
2 42785  97.1994 216.0169 0008633 313.0898  46.9619 15.27573881278070
DIAMOND BLUE            
1 42786U 17036X   22175.39271384  .00007334  00000+0  27447-3 0  9991
2 42786  97.1994 216.0080 0008640 313.3796  46.6723 15.27558850278073
LEO VANTAGE 1           
1 43113U 18004C   22175.50817457  .00002420  00000+0  19881-3 0  9996
2 43113  99.2467 256.2725 0402102 170.0041 190.9464 14.53815094225262
O3B FM15                
1 43231U 18024A   22175.48810237 -.00000023  00000+0  00000+0 0  9992
2 43231   0.0438   8.1358 0002852  88.8247 263.0707  5.00116012 78476
O3B FM16                
1 43232U 18024B   22175.54146978 -.00000023  00000+0  00000+0 0  9994
2 43232   0.0400   5.8102 0002821  91.5121 262.7085  5.00115900 78453
O3B FM14                
1 43233U 18024C   22175.38111520 -.00000023  00000+0  00000+0 0  9992
2 43233   0.0391   4.0943 0002624  93.0518 262.8825  5.00115300 78227
O3B FM13                
1 43234U 18024D   22175.23469975 -.00000023  00000+0  00000+0 0  9997
2 43234   0.0508  45.6420 0003363  64.8201 249.5727  5.00115122 78332
O3B FM20                
1 44112U 19020A   22175.00807207 -.00000023  00000+0  00000+0 0  9999
2 44112   0.0469   9.9179 0002764  93.9795 256.1321  5.00115451 58891
O3B FM19                
1 44113U 19020B   22175.23468832 -.00000023  00000+0  00000+0 0  9992
2 44113   0.0495  27.9004 0001759  59.3179 272.8005  5.00115036 58706
O3B FM17                
1 44114U 19020C   22175.11539889 -.00000023  00000+0  00000+0 0  9991
2 44114   0.0487 346.3543 0002940 112.0158 261.6620  5.00115535 58782
O3B FM18                
1 44115U 19020D   22175.26184321 -.00000023  00000+0  00000+0 0  9995
2 44115   0.0469  10.4478 0002883  84.0640 265.5199  5.00115756 58913
SALSAT                  
1 46495U 20068K   22175.47897407  .00001040  00000+0  78565-4 0  9996
2 46495  97.7296 116.7815 0014723 252.5026 107.4591 15.04540150 95240
ISS (ZARYA)             
1 25544U 98067A   22175.80947066  .00008394  00000+0  15561-3 0  9991
2 25544  51.6436 298.8335 0004115 298.3924 158.7990 15.49866662346367
SIMPL                   
1 42983U 98067NF  22175.61313550  .00164452  22795-4  29080-3 0  9990
2 42983  51.6254 143.2733 0004656  37.8230 322.3107 16.01553613266089
AEROCUBE 12A            
1 43556U 18046C   22175.64387782  .00013079  00000+0  33723-3 0  9994
2 43556  51.6356 148.8088 0008426  60.1214 300.0606 15.39487777220425
AEROCUBE 12B            
1 43557U 18046D   22175.32975139  .00011461  00000+0  31624-3 0  9990
2 43557  51.6368 154.8926 0008403  56.3754 303.8030 15.37524010220262
LEMUR-2-VU              
1 43558U 18046E   22175.46920462  .00022665  00000+0  44638-3 0  9992
2 43558  51.6373 131.5690 0009138  64.0653 296.1275 15.47094490220630
LEMUR-2-ALEXANDER       
1 43559U 18046F   22175.23403102  .00034051  00000+0  64924-3 0  9997
2 43559  51.6363 130.7775 0009481  64.0565 296.1399 15.47798577220407
LEMUR-2-YUASA           
1 43560U 18046G   22175.82591817  .00027755  00000+0  54416-3 0  9993
2 43560  51.6372 130.2030 0009325  70.8881 289.3115 15.47101652220683
LEMUR-2-TOMHENDERSON    
1 43561U 18046H   22175.17282969  .00030736  00000+0  64050-3 0  9995
2 43561  51.6375 136.2990 0008521  72.5979 287.5939 15.45274164220100
ISS DEB (SEDA-AP)       
1 43870U 98067PU  22175.13991260  .00073932  00000+0  29866-3 0  9997
2 43870  51.6284 195.7691 0005635 354.3591   5.7348 15.85642806199996
ISS DEB                 
1 44303U 98067QA  22175.45630034  .00281021  45303-4  47447-3 0  9998
2 44303  51.6228 216.0824 0007672 355.5503   4.5438 16.02155390175022
RED-EYE 1 (PINOT)       
1 44364U 98067QJ  22175.46990066  .00189554  25383-4  44972-3 0  9994
2 44364  51.6293 219.2842 0007012 342.6446  17.4321 15.96282728170574
STPSAT-4                
1 45043U 98067QY  22175.69880013  .00060199  00000+0  36479-3 0  9994
2 45043  51.6343 259.2672 0004351 296.6044  63.4510 15.76952869136644
SORTIE                  
1 45264U 98067RH  22175.48834254  .00073908  00000+0  38999-3 0  9993
2 45264  51.6383 254.9096 0004190 297.9122  62.1455 15.79955827133356
ICS-EF (ISS DEB)        
1 45265U 98067RJ  22175.56282806  .00018225  00000+0  20419-3 0  9992
2 45265  51.6375 276.3788 0004021 236.3804 123.6807 15.62744514132759
RED-EYE 2 (MERLOT)      
1 45800U 98067RM  22175.72244919  .00041846  00000+0  33484-3 0  9999
2 45800  51.6386 267.0131 0003342 298.7854  61.2808 15.70633603114750
RED-EYE 3 (CABERNET)    
1 45809U 98067RN  22175.53413288  .00040179  00000+0  32283-3 0  9998
2 45809  51.6385 268.0089 0003145 290.3597  69.7062 15.70553733113708
SPOC                    
1 46921U 98067RR  22175.44526769  .05489333  12350-4  66926-3 0  9994
2 46921  51.6130 248.2954 0008877 320.6564  39.3814 16.35363181 93131
NEUTRON-1               
1 46923U 98067RT  22175.62203236  .03988380  12222-4  69380-3 0  9996
2 46923  51.6175 247.9978 0010432 335.2313  24.8208 16.31898207 93187
ISS DEB                 
1 47853U 98067RZ  22175.53615616  .00006793  00000+0  11086-3 0  9990
2 47853  51.6415 295.0358 0002379  33.3093 326.8047 15.53848123 73016
